{
"type": "FeatureCollection",
"name": "slovenia_heavy_industry_READY_FOR_MAP",
"crs": { "type": "name", "properties": { "name": "urn:ogc:def:crs:OGC:1.3:CRS84" } },
"features": [
{ "type": "Feature", "properties": { "name": "ABRASIV MUTA", "city": "Muta", "game_type": "Heavy Industry", "production_details": "2(d) - Ferrous metal foundries" }, "geometry": { "type": "Point", "coordinates": [ 15.149674041645033, 46.597249888520487 ] } },
{ "type": "Feature", "properties": { "name": "Akubat d.o.o.", "city": "Maribor", "game_type": "Non-Ferrous Refinery", "production_details": "2(e) - Installations for non-ferrous metals" }, "geometry": { "type": "MultiPoint", "coordinates": [ [ 15.661776635663049, 46.562055071289421 ], [ 15.664480564668249, 46.562555368181783 ] ] } },
{ "type": "Feature", "properties": { "name": "Alpacem Cement Anhovo", "city": "Deskle", "game_type": "Cement Plant", "production_details": "5(a) - Installations for the disposal or recovery of hazardous waste,5(b) - Installations for the incineration of non-hazardous waste,3(c) - Installations for the production of cement clinker and lime in rotary kilns" }, "geometry": { "type": "Point", "coordinates": [ 13.628035748180659, 46.068648354725354 ] } },
{ "type": "Feature", "properties": { "name": "Alpacem Cement Solkan", "city": "Solkan", "game_type": "Cement Plant", "production_details": "3(c) - Installations for the production of cement clinker and lime in rotary kilns" }, "geometry": { "type": "Point", "coordinates": [ 13.653556885402493, 45.977329495534093 ] } },
{ "type": "Feature", "properties": { "name": "Atotech Slovenija", "city": "Podnart", "game_type": "Chemical Plant", "production_details": "4(b) - Chemical installations for the production on an industrial scale of basic inorganic chemicals,4(a) - Chemical installations for the production on an industrial scale of basic organic chemicals; 4(a) - Chemical installations for the production on an industrial scale of basic organic chemicals,4(b) - Chemical installations for the production on an industrial scale of basic inorganic chemicals" }, "geometry": { "type": "Point", "coordinates": [ 14.256272542129645, 46.294156720132115 ] } },
{ "type": "Feature", "properties": { "name": "BELINKA PERKEMIJA", "city": "Ljubljana", "game_type": "Chemical Plant", "production_details": "4(b) - Chemical installations for the production on an industrial scale of basic inorganic chemicals,4(b) - Chemical installations for the production on an industrial scale of basic inorganic chemicals,4(b) - Chemical installations for the production on an industrial scale of basic inorganic chemicals,4(a) - Chemical installations for the production on an industrial scale of basic organic chemicals; 4(a) - Chemical installations for the production on an industrial scale of basic organic chemicals,4(b) - Chemical installations for the production on an industrial scale of basic inorganic chemicals,4(b) - Chemical installations for the production on an industrial scale of basic inorganic chemicals,4(b) - Chemical installations for the production on an industrial scale of basic inorganic chemicals; 4(b) - Chemical installations for the production on an industrial scale of basic inorganic chemicals; 4(b) - Chemical installations for the production on an industrial scale of basic inorganic chemicals,4(b) - Chemical installations for the production on an industrial scale of basic inorganic chemicals,4(a) - Chemical installations for the production on an industrial scale of basic organic chemicals,4(b) - Chemical installations for the production on an industrial scale of basic inorganic chemicals; 4(b) - Chemical installations for the production on an industrial scale of basic inorganic chemicals,4(a) - Chemical installations for the production on an industrial scale of basic organic chemicals,4(b) - Chemical installations for the production on an industrial scale of basic inorganic chemicals,4(b) - Chemical installations for the production on an industrial scale of basic inorganic chemicals" }, "geometry": { "type": "Point", "coordinates": [ 14.575749389773915, 46.092613251021973 ] } },
{ "type": "Feature", "properties": { "name": "Cimos (Maribor)", "city": "Maribor", "game_type": "Non-Ferrous Refinery", "production_details": "2(d) - Ferrous metal foundries,2(e) - Installations for non-ferrous metals; 2(e) - Installations for non-ferrous metals,2(d) - Ferrous metal foundries; 2(d) - Ferrous metal foundries" }, "geometry": { "type": "Point", "coordinates": [ 15.666986864310944, 46.523215490069106 ] } },
{ "type": "Feature", "properties": { "name": "Cimos (Vuzenica)", "city": "Vuzenica", "game_type": "Heavy Industry", "production_details": "2(d) - Ferrous metal foundries" }, "geometry": { "type": "Point", "coordinates": [ 15.156743782931054, 46.593811682800919 ] } },
{ "type": "Feature", "properties": { "name": "Cinkarna Celje", "city": "Celje", "game_type": "Non-Ferrous Refinery", "production_details": "4(d) - Installations using a chemical or biological process for the production on an industrial scale of basic plant health products and of biocides,4(b) - Chemical installations for the production on an industrial scale of basic inorganic chemicals,2(e) - Installations for non-ferrous metals,4(b) - Chemical installations for the production on an industrial scale of basic inorganic chemicals; 4(b) - Chemical installations for the production on an industrial scale of basic inorganic chemicals,4(b) - Chemical installations for the production on an industrial scale of basic inorganic chemicals,4(d) - Installations using a chemical or biological process for the production on an industrial scale of basic plant health products and of biocides,2(e) - Installations for non-ferrous metals; 4(d) - Installations using a chemical or biological process for the production on an industrial scale of basic plant health products and of biocides,2(e) - Installations for non-ferrous metals,4(b) - Chemical installations for the production on an industrial scale of basic inorganic chemicals,4(b) - Chemical installations for the production on an industrial scale of basic inorganic chemicals; 4(b) - Chemical installations for the production on an industrial scale of basic inorganic chemicals; 4(b) - Chemical installations for the production on an industrial scale of basic inorganic chemicals,4(d) - Installations using a chemical or biological process for the production on an industrial scale of basic plant health products and of biocides,4(b) - Chemical installations for the production on an industrial scale of basic inorganic chemicals,2(e) - Installations for non-ferrous metals; 2(e) - Installations for non-ferrous metals,4(b) - Chemical installations for the production on an industrial scale of basic inorganic chemicals,4(d) - Installations using a chemical or biological process for the production on an industrial scale of basic plant health products and of biocides,4(b) - Chemical installations for the production on an industrial scale of basic inorganic chemicals; 4(b) - Chemical installations for the production on an industrial scale of basic inorganic chemicals,2(e) - Installations for non-ferrous metals,4(b) - Chemical installations for the production on an industrial scale of basic inorganic chemicals,4(d) - Installations using a chemical or biological process for the production on an industrial scale of basic plant health products and of biocides; 2(e) - Installations for non-ferrous metals,4(d) - Installations using a chemical or biological process for the production on an industrial scale of basic plant health products and of biocides,4(b) - Chemical installations for the production on an industrial scale of basic inorganic chemicals,4(b) - Chemical installations for the production on an industrial scale of basic inorganic chemicals; 4(d) - Installations using a chemical or biological process for the production on an industrial scale of basic plant health products and of biocides,4(b) - Chemical installations for the production on an industrial scale of basic inorganic chemicals,4(b) - Chemical installations for the production on an industrial scale of basic inorganic chemicals,2(e) - Installations for non-ferrous metals" }, "geometry": { "type": "Point", "coordinates": [ 15.288894944377875, 46.236743267573594 ] } },
{ "type": "Feature", "properties": { "name": "Croning livarna", "city": "Ravne na Koroškem", "game_type": "Heavy Industry", "production_details": "2(d) - Ferrous metal foundries" }, "geometry": { "type": "Point", "coordinates": [ 14.948181923417025, 46.545697145753756 ] } },
{ "type": "Feature", "properties": { "name": "ETA Cerkno", "city": "Cerkno", "game_type": "Heavy Industry", "production_details": "2(d) - Ferrous metal foundries" }, "geometry": { "type": "Point", "coordinates": [ 13.977516326314518, 46.121399727102855 ] } },
{ "type": "Feature", "properties": { "name": "HIDRIA, razvoj in proizvodnja avtomobilskih in industrijskih sistemov (Spodnja Idrija)", "city": "Spodnja Idrija", "game_type": "Non-Ferrous Refinery", "production_details": "2(e) - Installations for non-ferrous metals" }, "geometry": { "type": "Point", "coordinates": [ 14.01828187390786, 46.035176050618425 ] } },
{ "type": "Feature", "properties": { "name": "Hidria (Koper)", "city": "Koper ", "game_type": "Non-Ferrous Refinery", "production_details": "2(e) - Installations for non-ferrous metals" }, "geometry": { "type": "Point", "coordinates": [ 13.729581307897529, 45.532896925007833 ] } },
{ "type": "Feature", "properties": { "name": "Hidria Rotomatika (Spodnja Idrija)", "city": "Spodnja Idrija", "game_type": "Non-Ferrous Refinery", "production_details": "2(e) - Installations for non-ferrous metals" }, "geometry": { "type": "Point", "coordinates": [ 14.01828187390786, 46.035176050618425 ] } },
{ "type": "Feature", "properties": { "name": "IAK, Industrija apna Kresnice", "city": "Kresnice", "game_type": "Cement Plant", "production_details": "3(c) - Installations for the production of cement clinker and lime in rotary kilns" }, "geometry": { "type": "Point", "coordinates": [ 14.792962025474013, 46.103072041375377 ] } },
{ "type": "Feature", "properties": { "name": "IGM Zagorje", "city": "Zagorje ob Savi", "game_type": "Cement Plant", "production_details": "3(c) - Installations for the production of cement clinker and lime in rotary kilns" }, "geometry": { "type": "Point", "coordinates": [ 14.992935990871858, 46.121225384362248 ] } },
{ "type": "Feature", "properties": { "name": "Imerys Fused Minerals Ruše", "city": "Ruše", "game_type": "Mineral Wool Plant", "production_details": "3(f) - Installations for melting mineral substances, incl. The production of mineral fibres" }, "geometry": { "type": "Point", "coordinates": [ 15.52100164748868, 46.548557667425143 ] } },
{ "type": "Feature", "properties": { "name": "Impol LLT", "city": "Slovenska Bistrica", "game_type": "Non-Ferrous Refinery", "production_details": "2(e) - Installations for non-ferrous metals" }, "geometry": { "type": "Point", "coordinates": [ 15.550421473043594, 46.396909551259135 ] } },
{ "type": "Feature", "properties": { "name": "Intercal", "city": "Zagorje ob Savi", "game_type": "Cement Plant", "production_details": "3(c) - Installations for the production of cement clinker and lime in rotary kilns" }, "geometry": { "type": "Point", "coordinates": [ 14.992935990871858, 46.121225384362248 ] } },
{ "type": "Feature", "properties": { "name": "KEMIRA KTM", "city": "Ljubljana", "game_type": "Chemical Plant", "production_details": "4(b) - Chemical installations for the production on an industrial scale of basic inorganic chemicals" }, "geometry": { "type": "Point", "coordinates": [ 14.534786212818062, 46.060233871488208 ] } },
{ "type": "Feature", "properties": { "name": "KNAUF INSULATION", "city": "Škofja Loka", "game_type": "Mineral Wool Plant", "production_details": "3(f) - Installations for melting mineral substances, incl. The production of mineral fibres" }, "geometry": { "type": "Point", "coordinates": [ 14.333895965830415, 46.175966776818477 ] } },
{ "type": "Feature", "properties": { "name": "KOVIS-LIVARNA", "city": "Štore", "game_type": "Heavy Industry", "production_details": "2(d) - Ferrous metal foundries" }, "geometry": { "type": "Point", "coordinates": [ 15.301444408897027, 46.224022823079451 ] } },
{ "type": "Feature", "properties": { "name": "LTH Castings, Obrat Ljubljana", "city": "Ljubljana", "game_type": "Non-Ferrous Refinery", "production_details": "2(e) - Installations for non-ferrous metals" }, "geometry": { "type": "Point", "coordinates": [ 14.493715238028116, 46.078351466127685 ] } },
{ "type": "Feature", "properties": { "name": "LTH Castings, Obrat Škofja Loka", "city": "Škofja Loka", "game_type": "Non-Ferrous Refinery", "production_details": "2(e) - Installations for non-ferrous metals" }, "geometry": { "type": "Point", "coordinates": [ 14.30072118238788, 46.167823739759292 ] } },
{ "type": "Feature", "properties": { "name": "Lafarge Cement d.d.", "city": "Trbovlje", "game_type": "Cement Plant", "production_details": "3(c) - Installations for the production of cement clinker and lime in rotary kilns" }, "geometry": { "type": "Point", "coordinates": [ 15.034941213557287, 46.128572207301055 ] } },
{ "type": "Feature", "properties": { "name": "Litostroj Specialna livarna", "city": "Ljubljana", "game_type": "Heavy Industry", "production_details": "2(d) - Ferrous metal foundries" }, "geometry": { "type": "Point", "coordinates": [ 14.495359154998056, 46.07698677706771 ] } },
{ "type": "Feature", "properties": { "name": "Livar, Obrat Ivančna Gorica", "city": "Ivančna Gorica", "game_type": "Heavy Industry", "production_details": "2(d) - Ferrous metal foundries" }, "geometry": { "type": "Point", "coordinates": [ 14.807344053172766, 45.941140775476669 ] } },
{ "type": "Feature", "properties": { "name": "Livar, Obrat Črnomelj", "city": "Črnomelj", "game_type": "Heavy Industry", "production_details": "2(d) - Ferrous metal foundries" }, "geometry": { "type": "Point", "coordinates": [ 15.184331045306363, 45.571237824391581 ] } },
{ "type": "Feature", "properties": { "name": "Livarna Gorica", "city": "Solkan", "game_type": "Heavy Industry", "production_details": "2(d) - Ferrous metal foundries" }, "geometry": { "type": "Point", "coordinates": [ 13.638321458183828, 45.96604764545377 ] } },
{ "type": "Feature", "properties": { "name": "Livarna TITAN", "city": "Kamnik", "game_type": "Heavy Industry", "production_details": "2(d) - Ferrous metal foundries" }, "geometry": { "type": "Point", "coordinates": [ 14.603776826638441, 46.211840250184665 ] } },
{ "type": "Feature", "properties": { "name": "MLM", "city": "Maribor", "game_type": "Non-Ferrous Refinery", "production_details": "2(e) - Installations for non-ferrous metals,2(f) - Installations for surface treatment of metals and plastic materials using an electrolytic or chemical process; 2(e) - Installations for non-ferrous metals; 2(f) - Installations for surface treatment of metals and plastic materials using an electrolytic or chemical process,2(e) - Installations for non-ferrous metals" }, "geometry": { "type": "Point", "coordinates": [ 15.662396473209091, 46.557527483461506 ] } },
{ "type": "Feature", "properties": { "name": "MPI Reciklaža", "city": "Črna na Koroškem", "game_type": "Non-Ferrous Refinery", "production_details": "2(e) - Installations for non-ferrous metals" }, "geometry": { "type": "Point", "coordinates": [ 14.868501357715623, 46.483680097475542 ] } },
{ "type": "Feature", "properties": { "name": "OMCO METALS Slovenija", "city": "Žalec", "game_type": "Non-Ferrous Refinery", "production_details": "2(d) - Ferrous metal foundries,2(e) - Installations for non-ferrous metals; 2(e) - Installations for non-ferrous metals,2(d) - Ferrous metal foundries; 2(d) - Ferrous metal foundries" }, "geometry": { "type": "Point", "coordinates": [ 15.156330557900359, 46.250386348454469 ] } },
{ "type": "Feature", "properties": { "name": "POCINKOVALNICA", "city": "Celje", "game_type": "Chemical Plant", "production_details": "2(f) - Installations for surface treatment of metals and plastic materials using an electrolytic or chemical process,2(c) - Installations for the processing of ferrous metals; 2(c) - Installations for the processing of ferrous metals; 2(c) - Installations for the processing of ferrous metals,2(f) - Installations for surface treatment of metals and plastic materials using an electrolytic or chemical process" }, "geometry": { "type": "Point", "coordinates": [ 15.280208235580441, 46.238743968025496 ] } },
{ "type": "Feature", "properties": { "name": "Rondal", "city": "Slovenska Bistrica", "game_type": "Non-Ferrous Refinery", "production_details": "2(e) - Installations for non-ferrous metals" }, "geometry": { "type": "Point", "coordinates": [ 15.550771816004399, 46.397956548375284 ] } },
{ "type": "Feature", "properties": { "name": "SALONIT ANHOVO Gradbeni materiali", "city": "Solkan", "game_type": "Cement Plant", "production_details": "3(c) - Installations for the production of cement clinker and lime in rotary kilns" }, "geometry": { "type": "Point", "coordinates": [ 13.653556885402493, 45.977329495534093 ] } },
{ "type": "Feature", "properties": { "name": "SALONIT ANHOVO gradbeni materiali", "city": "Deskle", "game_type": "Cement Plant", "production_details": "3(c) - Installations for the production of cement clinker and lime in rotary kilns,5(b) - Installations for the incineration of non-hazardous waste,5(a) - Installations for the disposal or recovery of hazardous waste; 5(b) - Installations for the incineration of non-hazardous waste,3(c) - Installations for the production of cement clinker and lime in rotary kilns,5(a) - Installations for the disposal or recovery of hazardous waste; 3(c) - Installations for the production of cement clinker and lime in rotary kilns; 5(b) - Installations for the incineration of non-hazardous waste,5(a) - Installations for the disposal or recovery of hazardous waste,3(c) - Installations for the production of cement clinker and lime in rotary kilns; 5(a) - Installations for the disposal or recovery of hazardous waste,3(c) - Installations for the production of cement clinker and lime in rotary kilns,5(b) - Installations for the incineration of non-hazardous waste" }, "geometry": { "type": "Point", "coordinates": [ 13.628035748180659, 46.068648354725354 ] } },
{ "type": "Feature", "properties": { "name": "SIA", "city": "Solkan", "game_type": "Cement Plant", "production_details": "3(c) - Installations for the production of cement clinker and lime in rotary kilns" }, "geometry": { "type": "Point", "coordinates": [ 13.653556885402493, 45.977329495534093 ] } },
{ "type": "Feature", "properties": { "name": "SIJ ACRONI", "city": "Jesenice", "game_type": "Steel Mill", "production_details": "2(c) - Installations for the processing of ferrous metals,2(f) - Installations for surface treatment of metals and plastic materials using an electrolytic or chemical process,5(c) - Installations for the disposal of non-hazardous waste,2(b) - Installations for the production of pig iron or steel (primary or secondary melting) including continuous casting; 2(b) - Installations for the production of pig iron or steel (primary or secondary melting) including continuous casting,2(c) - Installations for the processing of ferrous metals,2(f) - Installations for surface treatment of metals and plastic materials using an electrolytic or chemical process,5(c) - Installations for the disposal of non-hazardous waste; 2(b) - Installations for the production of pig iron or steel (primary or secondary melting) including continuous casting,2(f) - Installations for surface treatment of metals and plastic materials using an electrolytic or chemical process,5(c) - Installations for the disposal of non-hazardous waste,2(c) - Installations for the processing of ferrous metals; 5(c) - Installations for the disposal of non-hazardous waste,2(f) - Installations for surface treatment of metals and plastic materials using an electrolytic or chemical process,2(b) - Installations for the production of pig iron or steel (primary or secondary melting) including continuous casting,2(c) - Installations for the processing of ferrous metals; 2(b) - Installations for the production of pig iron or steel (primary or secondary melting) including continuous casting; 2(f) - Installations for surface treatment of metals and plastic materials using an electrolytic or chemical process,5(c) - Installations for the disposal of non-hazardous waste,2(c) - Installations for the processing of ferrous metals,2(b) - Installations for the production of pig iron or steel (primary or secondary melting) including continuous casting; 2(b) - Installations for the production of pig iron or steel (primary or secondary melting) including continuous casting,2(f) - Installations for surface treatment of metals and plastic materials using an electrolytic or chemical process,2(c) - Installations for the processing of ferrous metals,5(c) - Installations for the disposal of non-hazardous waste; 2(f) - Installations for surface treatment of metals and plastic materials using an electrolytic or chemical process,2(c) - Installations for the processing of ferrous metals,5(c) - Installations for the disposal of non-hazardous waste,2(b) - Installations for the production of pig iron or steel (primary or secondary melting) including continuous casting" }, "geometry": { "type": "Point", "coordinates": [ 14.099256013618396, 46.422440638071578 ] } },
{ "type": "Feature", "properties": { "name": "SIJ METAL RAVNE", "city": "Ravne na Koroškem", "game_type": "Steel Mill", "production_details": "2(b) - Installations for the production of pig iron or steel (primary or secondary melting) including continuous casting,2(c) - Installations for the processing of ferrous metals; 2(b) - Installations for the production of pig iron or steel (primary or secondary melting) including continuous casting; 2(c) - Installations for the processing of ferrous metals,2(b) - Installations for the production of pig iron or steel (primary or secondary melting) including continuous casting" }, "geometry": { "type": "Point", "coordinates": [ 14.954946237506446, 46.545091659633741 ] } },
{ "type": "Feature", "properties": { "name": "Silkem", "city": "Kidričevo", "game_type": "Chemical Plant", "production_details": "4(b) - Chemical installations for the production on an industrial scale of basic inorganic chemicals" }, "geometry": { "type": "Point", "coordinates": [ 15.790568097947265, 46.397089214914025 ] } },
{ "type": "Feature", "properties": { "name": "Solchem", "city": "Ljubljana", "game_type": "Chemical Plant", "production_details": "4(b) - Chemical installations for the production on an industrial scale of basic inorganic chemicals,4(a) - Chemical installations for the production on an industrial scale of basic organic chemicals; 4(a) - Chemical installations for the production on an industrial scale of basic organic chemicals,4(b) - Chemical installations for the production on an industrial scale of basic inorganic chemicals" }, "geometry": { "type": "Point", "coordinates": [ 14.536367247718113, 46.061486775810749 ] } },
{ "type": "Feature", "properties": { "name": "Steklarna Hrastnik", "city": "Hrastnik", "game_type": "Glassworks", "production_details": "3(e) - Installations for the manufacture of glass, incl. Glass fibre" }, "geometry": { "type": "MultiPoint", "coordinates": [ [ 15.093637134221657, 46.120503101416936 ], [ 15.093771881514275, 46.127806440143971 ] ] } },
{ "type": "Feature", "properties": { "name": "Steklarna Rogaška", "city": "Rogaška Slatina", "game_type": "Glassworks", "production_details": "3(e) - Installations for the manufacture of glass, incl. Glass fibre" }, "geometry": { "type": "Point", "coordinates": [ 15.645247634435249, 46.224613236251145 ] } },
{ "type": "Feature", "properties": { "name": "TAB (Mušenik)", "city": "Črna na Koroškem", "game_type": "Non-Ferrous Refinery", "production_details": "4(b) - Chemical installations for the production on an industrial scale of basic inorganic chemicals,2(e) - Installations for non-ferrous metals; 2(e) - Installations for non-ferrous metals; 2(e) - Installations for non-ferrous metals,4(b) - Chemical installations for the production on an industrial scale of basic inorganic chemicals" }, "geometry": { "type": "Point", "coordinates": [ 14.850714715090056, 46.47566316347212 ] } },
{ "type": "Feature", "properties": { "name": "TAB (Žerjav)", "city": "Črna na Koroškem", "game_type": "Non-Ferrous Refinery", "production_details": "4(b) - Chemical installations for the production on an industrial scale of basic inorganic chemicals,2(e) - Installations for non-ferrous metals; 2(e) - Installations for non-ferrous metals; 2(e) - Installations for non-ferrous metals,4(b) - Chemical installations for the production on an industrial scale of basic inorganic chemicals" }, "geometry": { "type": "Point", "coordinates": [ 14.87012730837988, 46.483809991773526 ] } },
{ "type": "Feature", "properties": { "name": "TDR LEGURE", "city": "Ruše", "game_type": "Non-Ferrous Refinery", "production_details": "2(e) - Installations for non-ferrous metals" }, "geometry": { "type": "Point", "coordinates": [ 15.518630095138604, 46.547717443434202 ] } },
{ "type": "Feature", "properties": { "name": "TKI HRASTNIK", "city": "Hrastnik", "game_type": "Chemical Plant", "production_details": "4(b) - Chemical installations for the production on an industrial scale of basic inorganic chemicals; 4(b) - Chemical installations for the production on an industrial scale of basic inorganic chemicals,4(b) - Chemical installations for the production on an industrial scale of basic inorganic chemicals,4(b) - Chemical installations for the production on an industrial scale of basic inorganic chemicals,4(b) - Chemical installations for the production on an industrial scale of basic inorganic chemicals" }, "geometry": { "type": "Point", "coordinates": [ 15.092496273810825, 46.131635169471579 ] } },
{ "type": "Feature", "properties": { "name": "Talum", "city": "Kidričevo", "game_type": "Non-Ferrous Refinery", "production_details": "2(d) - Ferrous metal foundries,9(d) - Installations for the production of carbon (hard-burnt coal) or electrographite by means of incineration or graphitization,2(e) - Installations for non-ferrous metals,2(e) - Installations for non-ferrous metals; 9(d) - Installations for the production of carbon (hard-burnt coal) or electrographite by means of incineration or graphitization,2(e) - Installations for non-ferrous metals,2(d) - Ferrous metal foundries,2(e) - Installations for non-ferrous metals; 2(d) - Ferrous metal foundries,2(e) - Installations for non-ferrous metals,2(e) - Installations for non-ferrous metals,9(d) - Installations for the production of carbon (hard-burnt coal) or electrographite by means of incineration or graphitization; 2(e) - Installations for non-ferrous metals,2(e) - Installations for non-ferrous metals,2(d) - Ferrous metal foundries,9(d) - Installations for the production of carbon (hard-burnt coal) or electrographite by means of incineration or graphitization; 2(e) - Installations for non-ferrous metals; 2(e) - Installations for non-ferrous metals,9(d) - Installations for the production of carbon (hard-burnt coal) or electrographite by means of incineration or graphitization,2(e) - Installations for non-ferrous metals,2(d) - Ferrous metal foundries; 9(d) - Installations for the production of carbon (hard-burnt coal) or electrographite by means of incineration or graphitization,2(e) - Installations for non-ferrous metals,2(e) - Installations for non-ferrous metals,2(d) - Ferrous metal foundries; 9(d) - Installations for the production of carbon (hard-burnt coal) or electrographite by means of incineration or graphitization,2(d) - Ferrous metal foundries,2(e) - Installations for non-ferrous metals,2(e) - Installations for non-ferrous metals" }, "geometry": { "type": "Point", "coordinates": [ 15.790801659921135, 46.393031150229746 ] } },
{ "type": "Feature", "properties": { "name": "Termoelektrarna Šoštanj", "city": "Šoštanj", "game_type": "Chemical Plant", "production_details": "1(c) - Thermal power stations and other combustion installations (>50 MW),1(e) - Coal rolling mills,5(c) - Installations for the disposal of non-hazardous waste,4(b) - Chemical installations for the production on an industrial scale of basic inorganic chemicals; 1(e) - Coal rolling mills,4(b) - Chemical installations for the production on an industrial scale of basic inorganic chemicals,5(c) - Installations for the disposal of non-hazardous waste,1(c) - Thermal power stations and other combustion installations (>50 MW); 5(c) - Installations for the disposal of non-hazardous waste,1(c) - Thermal power stations and other combustion installations (>50 MW),4(b) - Chemical installations for the production on an industrial scale of basic inorganic chemicals,1(e) - Coal rolling mills; 5(c) - Installations for the disposal of non-hazardous waste,1(c) - Thermal power stations and other combustion installations (>50 MW),1(e) - Coal rolling mills,4(b) - Chemical installations for the production on an industrial scale of basic inorganic chemicals; 1(c) - Thermal power stations and other combustion installations (>50 MW),4(b) - Chemical installations for the production on an industrial scale of basic inorganic chemicals,1(e) - Coal rolling mills,5(c) - Installations for the disposal of non-hazardous waste" }, "geometry": { "type": "Point", "coordinates": [ 15.05343752525731, 46.37228384052721 ] } },
{ "type": "Feature", "properties": { "name": "Titus Dekani", "city": "Dekani", "game_type": "Non-Ferrous Refinery", "production_details": "2(e) - Installations for non-ferrous metals,2(f) - Installations for surface treatment of metals and plastic materials using an electrolytic or chemical process; 2(f) - Installations for surface treatment of metals and plastic materials using an electrolytic or chemical process,2(e) - Installations for non-ferrous metals" }, "geometry": { "type": "Point", "coordinates": [ 13.793128131096145, 45.556577642208971 ] } },
{ "type": "Feature", "properties": { "name": "URSA SLOVENIJA", "city": "Novo mesto", "game_type": "Glassworks", "production_details": "3(e) - Installations for the manufacture of glass, incl. Glass fibre" }, "geometry": { "type": "Point", "coordinates": [ 15.145101616848866, 45.812587928996379 ] } },
{ "type": "Feature", "properties": { "name": "VALJI", "city": "Štore", "game_type": "Heavy Industry", "production_details": "2(d) - Ferrous metal foundries" }, "geometry": { "type": "Point", "coordinates": [ 15.319266984133959, 46.219529260047565 ] } },
{ "type": "Feature", "properties": { "name": "WINOA ABRASIV MUTA", "city": "Muta", "game_type": "Heavy Industry", "production_details": "2(d) - Ferrous metal foundries" }, "geometry": { "type": "Point", "coordinates": [ 15.149674041645033, 46.597249888520487 ] } },
{ "type": "Feature", "properties": { "name": "ŠTORE STEEL", "city": "Štore", "game_type": "Steel Mill", "production_details": "2(b) - Installations for the production of pig iron or steel (primary or secondary melting) including continuous casting,2(c) - Installations for the processing of ferrous metals; 2(b) - Installations for the production of pig iron or steel (primary or secondary melting) including continuous casting; 2(c) - Installations for the processing of ferrous metals,2(b) - Installations for the production of pig iron or steel (primary or secondary melting) including continuous casting" }, "geometry": { "type": "Point", "coordinates": [ 15.30433698411189, 46.224638095613813 ] } }
]
}
